CCSDS_OMM_VERS = 2.0
CREATION_DATE  = 
ORIGINATOR     = 

OBJECT_NAME    = HULIANWANG DIGUI-107
OBJECT_ID      = 2025-285C
CENTER_NAME    = EARTH
REF_FRAME      = TEME
TIME_SYSTEM    = UTC
MEAN_ELEMENT_THEORY = SGP/SGP4

EPOCH          = 2026-01-01T10:21:53.509248
MEAN_MOTION    = 13.98032255
ECCENTRICITY   = .00000116
INCLINATION    = 50.0036
RA_OF_ASC_NODE = 37.1645
ARG_OF_PERICENTER = 262.7084
MEAN_ANOMALY   = 97.3817

EPHEMERIS_TYPE = 0
CLASSIFICATION_TYPE = U
NORAD_CAT_ID   = 66917
ELEMENT_SET_NO = 999
REV_AT_EPOCH   = 367
BSTAR          = .84682822E-4
MEAN_MOTION_DOT = -.28E-6
MEAN_MOTION_DDOT = 0

CCSDS_OMM_VERS = 2.0
CREATION_DATE  = 
ORIGINATOR     = 

OBJECT_NAME    = HULIANWANG DIGUI-108
OBJECT_ID      = 2025-285D
CENTER_NAME    = EARTH
REF_FRAME      = TEME
TIME_SYSTEM    = UTC
MEAN_ELEMENT_THEORY = SGP/SGP4

EPOCH          = 2025-12-31T08:36:21.983328
MEAN_MOTION    = 13.99605219
ECCENTRICITY   = .00003224
INCLINATION    = 50.0054
RA_OF_ASC_NODE = 41.4885
ARG_OF_PERICENTER = 353.1378
MEAN_ANOMALY   = 6.9520

EPHEMERIS_TYPE = 0
CLASSIFICATION_TYPE = U
NORAD_CAT_ID   = 66918
ELEMENT_SET_NO = 999
REV_AT_EPOCH   = 352
BSTAR          = .68105042E-4
MEAN_MOTION_DOT = -.5E-6
MEAN_MOTION_DDOT = 0

CCSDS_OMM_VERS = 2.0
CREATION_DATE  = 
ORIGINATOR     = 

OBJECT_NAME    = HULIANWANG DIGUI-109
OBJECT_ID      = 2025-285E
CENTER_NAME    = EARTH
REF_FRAME      = TEME
TIME_SYSTEM    = UTC
MEAN_ELEMENT_THEORY = SGP/SGP4

EPOCH          = 2026-01-01T13:41:50.870688
MEAN_MOTION    = 13.98356475
ECCENTRICITY   = .00002138
INCLINATION    = 50.0082
RA_OF_ASC_NODE = 36.5784
ARG_OF_PERICENTER = 289.5160
MEAN_ANOMALY   = 70.5719

EPHEMERIS_TYPE = 0
CLASSIFICATION_TYPE = U
NORAD_CAT_ID   = 66919
ELEMENT_SET_NO = 999
REV_AT_EPOCH   = 369
BSTAR          = .94547913E-4
MEAN_MOTION_DOT = -.14E-6
MEAN_MOTION_DDOT = 0

CCSDS_OMM_VERS = 2.0
CREATION_DATE  = 
ORIGINATOR     = 

OBJECT_NAME    = HULIANWANG DIGUI-110
OBJECT_ID      = 2025-285F
CENTER_NAME    = EARTH
REF_FRAME      = TEME
TIME_SYSTEM    = UTC
MEAN_ELEMENT_THEORY = SGP/SGP4

EPOCH          = 2026-01-01T15:22:08.655744
MEAN_MOTION    = 13.98849158
ECCENTRICITY   = .00001878
INCLINATION    = 50.0114
RA_OF_ASC_NODE = 36.2896
ARG_OF_PERICENTER = 284.0731
MEAN_ANOMALY   = 76.0150

EPHEMERIS_TYPE = 0
CLASSIFICATION_TYPE = U
NORAD_CAT_ID   = 66920
ELEMENT_SET_NO = 999
REV_AT_EPOCH   = 370
BSTAR          = .36199624E-3
MEAN_MOTION_DOT = .375E-5
MEAN_MOTION_DDOT = 0

CCSDS_OMM_VERS = 2.0
CREATION_DATE  = 
ORIGINATOR     = 

OBJECT_NAME    = HULIANWANG DIGUI-111
OBJECT_ID      = 2025-285G
CENTER_NAME    = EARTH
REF_FRAME      = TEME
TIME_SYSTEM    = UTC
MEAN_ELEMENT_THEORY = SGP/SGP4

EPOCH          = 2026-01-01T15:20:19.065984
MEAN_MOTION    = 13.98925512
ECCENTRICITY   = .00003026
INCLINATION    = 50.0130
RA_OF_ASC_NODE = 36.2875
ARG_OF_PERICENTER = 179.1006
MEAN_ANOMALY   = 180.9897

EPHEMERIS_TYPE = 0
CLASSIFICATION_TYPE = U
NORAD_CAT_ID   = 66921
ELEMENT_SET_NO = 999
REV_AT_EPOCH   = 370
BSTAR          = -.15898076E-4
MEAN_MOTION_DOT = -.173E-5
MEAN_MOTION_DDOT = 0

CCSDS_OMM_VERS = 2.0
CREATION_DATE  = 
ORIGINATOR     = 

OBJECT_NAME    = HULIANWANG DIGUI-112
OBJECT_ID      = 2025-285H
CENTER_NAME    = EARTH
REF_FRAME      = TEME
TIME_SYSTEM    = UTC
MEAN_ELEMENT_THEORY = SGP/SGP4

EPOCH          = 2026-01-01T15:18:16.841088
MEAN_MOTION    = 13.98809983
ECCENTRICITY   = .00002325
INCLINATION    = 50.0103
RA_OF_ASC_NODE = 36.2703
ARG_OF_PERICENTER = 224.8498
MEAN_ANOMALY   = 135.2385

EPHEMERIS_TYPE = 0
CLASSIFICATION_TYPE = U
NORAD_CAT_ID   = 66922
ELEMENT_SET_NO = 999
REV_AT_EPOCH   = 370
BSTAR          = .1838718E-3
MEAN_MOTION_DOT = .117E-5
MEAN_MOTION_DDOT = 0

CCSDS_OMM_VERS = 2.0
CREATION_DATE  = 
ORIGINATOR     = 

OBJECT_NAME    = HULIANWANG DIGUI-113
OBJECT_ID      = 2025-285J
CENTER_NAME    = EARTH
REF_FRAME      = TEME
TIME_SYSTEM    = UTC
MEAN_ELEMENT_THEORY = SGP/SGP4

EPOCH          = 2026-01-01T08:23:31.125984
MEAN_MOTION    = 13.99285176
ECCENTRICITY   = .00001587
INCLINATION    = 50.0116
RA_OF_ASC_NODE = 37.4117
ARG_OF_PERICENTER = 204.6136
MEAN_ANOMALY   = 155.4759

EPHEMERIS_TYPE = 0
CLASSIFICATION_TYPE = U
NORAD_CAT_ID   = 66923
ELEMENT_SET_NO = 999
REV_AT_EPOCH   = 366
BSTAR          = .47138095E-3
MEAN_MOTION_DOT = .539E-5
MEAN_MOTION_DDOT = 0

CCSDS_OMM_VERS = 2.0
CREATION_DATE  = 
ORIGINATOR     = 

OBJECT_NAME    = CZ-8A R/B
OBJECT_ID      = 2025-285K
CENTER_NAME    = EARTH
REF_FRAME      = TEME
TIME_SYSTEM    = UTC
MEAN_ELEMENT_THEORY = SGP/SGP4

EPOCH          = 2026-01-01T08:39:38.300544
MEAN_MOTION    = 14.30512020
ECCENTRICITY   = .01191934
INCLINATION    = 50.0089
RA_OF_ASC_NODE = 32.6333
ARG_OF_PERICENTER = 175.9013
MEAN_ANOMALY   = 184.2906

EPHEMERIS_TYPE = 0
CLASSIFICATION_TYPE = U
NORAD_CAT_ID   = 66924
ELEMENT_SET_NO = 999
REV_AT_EPOCH   = 373
BSTAR          = .13566103E-3
MEAN_MOTION_DOT = .219E-5
MEAN_MOTION_DDOT = 0

CCSDS_OMM_VERS = 2.0
CREATION_DATE  = 
ORIGINATOR     = 

OBJECT_NAME    = STARLINK-35945
OBJECT_ID      = 2025-286A
CENTER_NAME    = EARTH
REF_FRAME      = TEME
TIME_SYSTEM    = UTC
MEAN_ELEMENT_THEORY = SGP/SGP4

EPOCH          = 2026-01-01T14:00:01.999872
MEAN_MOTION    = 15.49356904
ECCENTRICITY   = .0001081
INCLINATION    = 53.1589
RA_OF_ASC_NODE = 312.8004
ARG_OF_PERICENTER = 80.4218
MEAN_ANOMALY   = 334.3923

EPHEMERIS_TYPE = 0
CLASSIFICATION_TYPE = U
NORAD_CAT_ID   = 66925
ELEMENT_SET_NO = 999
REV_AT_EPOCH   = 517
BSTAR          = -.21391298E-2
MEAN_MOTION_DOT = -.11784E-2
MEAN_MOTION_DDOT = 0

CCSDS_OMM_VERS = 2.0
CREATION_DATE  = 
ORIGINATOR     = 

OBJECT_NAME    = STARLINK-35942
OBJECT_ID      = 2025-286B
CENTER_NAME    = EARTH
REF_FRAME      = TEME
TIME_SYSTEM    = UTC
MEAN_ELEMENT_THEORY = SGP/SGP4

EPOCH          = 2026-01-01T14:00:01.999872
MEAN_MOTION    = 15.39788309
ECCENTRICITY   = .00016464
INCLINATION    = 53.1605
RA_OF_ASC_NODE = 312.9351
ARG_OF_PERICENTER = 87.5062
MEAN_ANOMALY   = 260.3368

EPHEMERIS_TYPE = 0
CLASSIFICATION_TYPE = U
NORAD_CAT_ID   = 66926
ELEMENT_SET_NO = 999
REV_AT_EPOCH   = 517
BSTAR          = -.83526634E-2
MEAN_MOTION_DOT = -.322561E-2
MEAN_MOTION_DDOT = 0

CCSDS_OMM_VERS = 2.0
CREATION_DATE  = 
ORIGINATOR     = 

OBJECT_NAME    = STARLINK-35943
OBJECT_ID      = 2025-286C
CENTER_NAME    = EARTH
REF_FRAME      = TEME
TIME_SYSTEM    = UTC
MEAN_ELEMENT_THEORY = SGP/SGP4

EPOCH          = 2026-01-01T13:54:08.774208
MEAN_MOTION    = 15.49353603
ECCENTRICITY   = .0001305
INCLINATION    = 53.1603
RA_OF_ASC_NODE = 312.8854
ARG_OF_PERICENTER = 97.5231
MEAN_ANOMALY   = 262.5926

EPHEMERIS_TYPE = 0
CLASSIFICATION_TYPE = U
NORAD_CAT_ID   = 66927
ELEMENT_SET_NO = 999
REV_AT_EPOCH   = 510
BSTAR          = .27374443E-2
MEAN_MOTION_DOT = .1551E-2
MEAN_MOTION_DDOT = 0

CCSDS_OMM_VERS = 2.0
CREATION_DATE  = 
ORIGINATOR     = 

OBJECT_NAME    = STARLINK-35944
OBJECT_ID      = 2025-286D
CENTER_NAME    = EARTH
REF_FRAME      = TEME
TIME_SYSTEM    = UTC
MEAN_ELEMENT_THEORY = SGP/SGP4

EPOCH          = 2026-01-01T08:00:01.999872
MEAN_MOTION    = 15.49291583
ECCENTRICITY   = .00011275
INCLINATION    = 53.1593
RA_OF_ASC_NODE = 314.0692
ARG_OF_PERICENTER = 86.0811
MEAN_ANOMALY   = 337.8719

EPHEMERIS_TYPE = 0
CLASSIFICATION_TYPE = U
NORAD_CAT_ID   = 66928
ELEMENT_SET_NO = 999
REV_AT_EPOCH   = 513
BSTAR          = -.81245976E-4
MEAN_MOTION_DOT = -.4961E-4
MEAN_MOTION_DDOT = 0

