HULIANWANG DIGUI-107    
1 66917U 25285C   26001.43186932 -.00000028  00000+0  84683-4 0  9999
2 66917  50.0036  37.1645 0000011 262.7084  97.3817 13.98032255  3671
HULIANWANG DIGUI-108    
1 66918U 25285D   25365.35858777 -.00000050  00000+0  68105-4 0  9992
2 66918  50.0054  41.4885 0000322 353.1378   6.9520 13.99605219  3520
HULIANWANG DIGUI-109    
1 66919U 25285E   26001.57072767 -.00000014  00000+0  94548-4 0  9992
2 66919  50.0082  36.5784 0000213 289.5160  70.5719 13.98356475  3696
HULIANWANG DIGUI-110    
1 66920U 25285F   26001.64037796  .00000375  00000+0  36200-3 0  9994
2 66920  50.0114  36.2896 0000187 284.0731  76.0150 13.98849158  3706
HULIANWANG DIGUI-111    
1 66921U 25285G   26001.63910956 -.00000173  00000+0 -15898-4 0  9991
2 66921  50.0130  36.2875 0000302 179.1006 180.9897 13.98925512  3702
HULIANWANG DIGUI-112    
1 66922U 25285H   26001.63769492  .00000117  00000+0  18387-3 0  9990
2 66922  50.0103  36.2703 0000232 224.8498 135.2385 13.98809983  3706
HULIANWANG DIGUI-113    
1 66923U 25285J   26001.34966581  .00000539  00000+0  47138-3 0  9991
2 66923  50.0116  37.4117 0000158 204.6136 155.4759 13.99285176  3662
CZ-8A R/B               
1 66924U 25285K   26001.36085996  .00000219  00000+0  13566-3 0  9999
2 66924  50.0089  32.6333 0119193 175.9013 184.2906 14.30512020  3732
STARLINK-35945          
1 66925U 25286A   26001.58335648 -.00117840  00000+0 -21391-2 0  9992
2 66925  53.1589 312.8004 0001081  80.4218 334.3923 15.49356904  5178
STARLINK-35942          
1 66926U 25286B   26001.58335648 -.00322561  00000+0 -83527-2 0  9990
2 66926  53.1605 312.9351 0001646  87.5062 260.3368 15.39788309  5174
STARLINK-35943          
1 66927U 25286C   26001.57926822  .00155100  00000+0  27374-2 0  9999
2 66927  53.1603 312.8854 0001305  97.5231 262.5926 15.49353603  5104
STARLINK-35944          
1 66928U 25286D   26001.33335648 -.00004961  00000+0 -81246-4 0  9994
2 66928  53.1593 314.0692 0001127  86.0811 337.8719 15.49291583  5133
